[{"OBJECT_NAME":"STARLINK-3862","OBJECT_ID":"2022-049W","EPOCH":"2026-03-09T09:21:32.946624","MEAN_MOTION":15.08839619,"ECCENTRICITY":0.00014671,"INCLINATION":53.2166,"RA_OF_ASC_NODE":60.4748,"ARG_OF_PERICENTER":81.7422,"MEAN_ANOMALY":278.3736,"EPHEMERIS_TYPE":0,"CLASSIFICATION_TYPE":"U","NORAD_CAT_ID":52471,"ELEMENT_SET_NO":999,"REV_AT_EPOCH":21220,"BSTAR":7.4687216e-5,"MEAN_MOTION_DOT":9.01e-6,"MEAN_MOTION_DDOT":0},{"OBJECT_NAME":"PEGASUS DEB","OBJECT_ID":"1994-029BC","EPOCH":"2026-03-09T22:00:19.479168","MEAN_MOTION":15.02669201,"ECCENTRICITY":0.00619411,"INCLINATION":81.9229,"RA_OF_ASC_NODE":10.1044,"ARG_OF_PERICENTER":202.7728,"MEAN_ANOMALY":222.9696,"EPHEMERIS_TYPE":0,"CLASSIFICATION_TYPE":"U","NORAD_CAT_ID":24007,"ELEMENT_SET_NO":999,"REV_AT_EPOCH":60998,"BSTAR":0.00034526552,"MEAN_MOTION_DOT":4.826e-5,"MEAN_MOTION_DDOT":0}]
